{"type": "FeatureCollection", "features": [ {"type": "Feature", "properties": {"norad_id": 39122, "name": "EUTELSAT 117 WEST A", "group": "eutelsat", "lat": -0.03744563705747962, "lon": -96.6726112092749, "alt_km": 35774.36658897127, "timestamp": "2025-12-18T19:29:52.214347+00:00", "meta": {"OBJECT_NAME": "EUTELSAT 117 WEST A", "OBJECT_ID": "2013-012A", "EPOCH": "2025-12-18T06:32:55.676832", "MEAN_MOTION": 1.00272874, "ECCENTRICITY": 0.00027185, "INCLINATION": 0.0277, "RA_OF_ASC_NODE": 45.3807, "ARG_OF_PERICENTER": 226.4287, "MEAN_ANOMALY": 156.7643, "EPHEMERIS_TYPE": 0, "CLASSIFICATION_TYPE": "U", "NORAD_CAT_ID": 39122, "ELEMENT_SET_NO": 999, "REV_AT_EPOCH": 4661, "BSTAR": 0, "MEAN_MOTION_DOT": 1.2e-07, "MEAN_MOTION_DDOT": 0}, "tle": {"line1": "1 39122U 13012A   25352.27286663  .00000012  00000+0  00000+0 0  9992", "line2": "2 39122   0.0277  45.3807 0002718 226.4287 156.7643  1.00272874 46611"}}, "geometry": {"type": "Point", "coordinates": [-96.6726112092749, -0.03744563705747962]}}, {"type": "Feature", "properties": {"norad_id": 39163, "name": "EUTELSAT 7B", "group": "eutelsat", "lat": 0.052055461169900785, "lon": 27.175010613827393, "alt_km": 35779.25432089048, "timestamp": "2025-12-18T19:29:52.214360+00:00", "meta": {"OBJECT_NAME": "EUTELSAT 7B", "OBJECT_ID": "2013-022A", "EPOCH": "2025-12-18T04:46:38.871264", "MEAN_MOTION": 1.00270241, "ECCENTRICITY": 0.00042712, "INCLINATION": 0.0654, "RA_OF_ASC_NODE": 354.4778, "ARG_OF_PERICENTER": 326.5912, "MEAN_ANOMALY": 204.666, "EPHEMERIS_TYPE": 0, "CLASSIFICATION_TYPE": "U", "NORAD_CAT_ID": 39163, "ELEMENT_SET_NO": 999, "REV_AT_EPOCH": 4613, "BSTAR": 0, "MEAN_MOTION_DOT": 7.3e-07, "MEAN_MOTION_DDOT": 0}, "tle": {"line1": "1 39163U 13022A   25352.19906101  .00000073  00000+0  00000+0 0  9992", "line2": "2 39163   0.0654 354.4778 0004271 326.5912 204.6660  1.00270241 46134"}}, "geometry": {"type": "Point", "coordinates": [27.175010613827393, 0.052055461169900785]}}, {"type": "Feature", "properties": {"norad_id": 39612, "name": "EXPRESS-AT1", "group": "eutelsat", "lat": 0.025257894922968427, "lon": 76.11770225539557, "alt_km": 35784.7450824093, "timestamp": "2025-12-18T19:29:52.214372+00:00", "meta": {"OBJECT_NAME": "EXPRESS-AT1", "OBJECT_ID": "2014-010A", "EPOCH": "2025-12-18T01:34:40.154592", "MEAN_MOTION": 1.00270908, "ECCENTRICITY": 5.765e-05, "INCLINATION": 0.0136, "RA_OF_ASC_NODE": 293.7377, "ARG_OF_PERICENTER": 194.1591, "MEAN_ANOMALY": 38.7032, "EPHEMERIS_TYPE": 0, "CLASSIFICATION_TYPE": "U", "NORAD_CAT_ID": 39612, "ELEMENT_SET_NO": 999, "REV_AT_EPOCH": 4300, "BSTAR": 0, "MEAN_MOTION_DOT": 1.04e-06, "MEAN_MOTION_DDOT": 0}, "tle": {"line1": "1 39612U 14010A   25352.06574253  .00000104  00000+0  00000+0 0  9999", "line2": "2 39612   0.0136 293.7377 0000576 194.1591  38.7032  1.00270908 43006"}}, "geometry": {"type": "Point", "coordinates": [76.11770225539557, 0.025257894922968427]}}, {"type": "Feature", "properties": {"norad_id": 39613, "name": "EXPRESS-AT2", "group": "eutelsat", "lat": -0.010004682622837168, "lon": 159.97291077707962, "alt_km": 35788.57159195081, "timestamp": "2025-12-18T19:29:52.214384+00:00", "meta": {"OBJECT_NAME": "EXPRESS-AT2", "OBJECT_ID": "2014-010B", "EPOCH": "2025-12-18T08:16:56.366112", "MEAN_MOTION": 1.0027213, "ECCENTRICITY": 0.00010075, "INCLINATION": 0.014, "RA_OF_ASC_NODE": 294.2623, "ARG_OF_PERICENTER": 352.3688, "MEAN_ANOMALY": 64.6688, "EPHEMERIS_TYPE": 0, "CLASSIFICATION_TYPE": "U", "NORAD_CAT_ID": 39613, "ELEMENT_SET_NO": 999, "REV_AT_EPOCH": 4268, "BSTAR": 0, "MEAN_MOTION_DOT": -2.56e-06, "MEAN_MOTION_DDOT": 0}, "tle": {"line1": "1 39613U 14010B   25352.34509683 -.00000256  00000+0  00000+0 0  9995", "line2": "2 39613   0.0140 294.2623 0001007 352.3688  64.6688  1.00272130 42684"}}, "geometry": {"type": "Point", "coordinates": [159.97291077707962, -0.010004682622837168]}}, {"type": "Feature", "properties": {"norad_id": 39773, "name": "EUTELSAT 3B", "group": "eutelsat", "lat": 0.03718342888576427, "lon": 23.23902975245911, "alt_km": 35801.54008428863, "timestamp": "2025-12-18T19:29:52.214395+00:00", "meta": {"OBJECT_NAME": "EUTELSAT 3B", "OBJECT_ID": "2014-030A", "EPOCH": "2025-12-18T04:46:38.871264", "MEAN_MOTION": 1.00272142, "ECCENTRICITY": 0.00042197, "INCLINATION": 0.0605, "RA_OF_ASC_NODE": 1.2277, "ARG_OF_PERICENTER": 230.7075, "MEAN_ANOMALY": 289.8806, "EPHEMERIS_TYPE": 0, "CLASSIFICATION_TYPE": "U", "NORAD_CAT_ID": 39773, "ELEMENT_SET_NO": 999, "REV_AT_EPOCH": 4225, "BSTAR": 0, "MEAN_MOTION_DOT": 4.5e-07, "MEAN_MOTION_DDOT": 0}, "tle": {"line1": "1 39773U 14030A   25352.19906101  .00000045  00000+0  00000+0 0  9998", "line2": "2 39773   0.0605   1.2277 0004219 230.7075 289.8806  1.00272142 42254"}}, "geometry": {"type": "Point", "coordinates": [23.23902975245911, 0.03718342888576427]}}, {"type": "Feature", "properties": {"norad_id": 40425, "name": "EUTELSAT 115 WEST B", "group": "eutelsat", "lat": 0.013034036098711028, "lon": -94.77105822094947, "alt_km": 35784.53971405945, "timestamp": "2025-12-18T19:29:52.214406+00:00", "meta": {"OBJECT_NAME": "EUTELSAT 115 WEST B", "OBJECT_ID": "2015-010B", "EPOCH": "2025-12-17T23:03:09.669312", "MEAN_MOTION": 1.0027235, "ECCENTRICITY": 3.218e-05, "INCLINATION": 0.0124, "RA_OF_ASC_NODE": 153.6594, "ARG_OF_PERICENTER": 106.0635, "MEAN_ANOMALY": 57.9981, "EPHEMERIS_TYPE": 0, "CLASSIFICATION_TYPE": "U", "NORAD_CAT_ID": 40425, "ELEMENT_SET_NO": 999, "REV_AT_EPOCH": 3957, "BSTAR": 0, "MEAN_MOTION_DOT": 0, "MEAN_MOTION_DDOT": 0}, "tle": {"line1": "1 40425U 15010B   25351.96052858  .00000000  00000+0  00000+0 0  9999", "line2": "2 40425   0.0124 153.6594 0000321 106.0635  57.9981  1.00272350 39577"}}, "geometry": {"type": "Point", "coordinates": [-94.77105822094947, 0.013034036098711028]}}, {"type": "Feature", "properties": {"norad_id": 40875, "name": "EUTELSAT 8 WEST B", "group": "eutelsat", "lat": 0.03225525577761781, "lon": 12.18723282706929, "alt_km": 35790.432119111, "timestamp": "2025-12-18T19:29:52.214418+00:00", "meta": {"OBJECT_NAME": "EUTELSAT 8 WEST B", "OBJECT_ID": "2015-039B", "EPOCH": "2025-12-18T03:51:38.597760", "MEAN_MOTION": 1.00271882, "ECCENTRICITY": 0.00043066, "INCLINATION": 0.0637, "RA_OF_ASC_NODE": 352.5135, "ARG_OF_PERICENTER": 275.7769, "MEAN_ANOMALY": 228.6611, "EPHEMERIS_TYPE": 0, "CLASSIFICATION_TYPE": "U", "NORAD_CAT_ID": 40875, "ELEMENT_SET_NO": 999, "REV_AT_EPOCH": 3784, "BSTAR": 0, "MEAN_MOTION_DOT": -4e-07, "MEAN_MOTION_DDOT": 0}, "tle": {"line1": "1 40875U 15039B   25352.16086340 -.00000040  00000+0  00000+0 0  9990", "line2": "2 40875   0.0637 352.5135 0004306 275.7769 228.6611  1.00271882 37849"}}, "geometry": {"type": "Point", "coordinates": [12.18723282706929, 0.03225525577761781]}}, {"type": "Feature", "properties": {"norad_id": 41310, "name": "EUTELSAT 9B", "group": "eutelsat", "lat": -0.020202219325935883, "lon": 29.162211925484858, "alt_km": 35794.02218861147, "timestamp": "2025-12-18T19:29:52.214430+00:00", "meta": {"OBJECT_NAME": "EUTELSAT 9B", "OBJECT_ID": "2016-005A", "EPOCH": "2025-12-18T04:46:38.871264", "MEAN_MOTION": 1.00272051, "ECCENTRICITY": 0.00044643, "INCLINATION": 0.0577, "RA_OF_ASC_NODE": 70.1501, "ARG_OF_PERICENTER": 203.8605, "MEAN_ANOMALY": 253.7054, "EPHEMERIS_TYPE": 0, "CLASSIFICATION_TYPE": "U", "NORAD_CAT_ID": 41310, "ELEMENT_SET_NO": 999, "REV_AT_EPOCH": 3630, "BSTAR": 0, "MEAN_MOTION_DOT": 8.7e-07, "MEAN_MOTION_DDOT": 0}, "tle": {"line1": "1 41310U 16005A   25352.19906101  .00000087  00000+0  00000+0 0  9998", "line2": "2 41310   0.0577  70.1501 0004464 203.8605 253.7054  1.00272051 36302"}}, "geometry": {"type": "Point", "coordinates": [29.162211925484858, -0.020202219325935883]}}, {"type": "Feature", "properties": {"norad_id": 41382, "name": "EUTELSAT 65 WEST A", "group": "eutelsat", "lat": -0.0237411179456771, "lon": -45.07766563942042, "alt_km": 35778.958027756526, "timestamp": "2025-12-18T19:29:52.214443+00:00", "meta": {"OBJECT_NAME": "EUTELSAT 65 WEST A", "OBJECT_ID": "2016-014A", "EPOCH": "2025-12-18T02:42:41.599872", "MEAN_MOTION": 1.00269947, "ECCENTRICITY": 0.00023133, "INCLINATION": 0.0559, "RA_OF_ASC_NODE": 326.8482, "ARG_OF_PERICENTER": 310.1608, "MEAN_ANOMALY": 145.4298, "EPHEMERIS_TYPE": 0, "CLASSIFICATION_TYPE": "U", "NORAD_CAT_ID": 41382, "ELEMENT_SET_NO": 999, "REV_AT_EPOCH": 3572, "BSTAR": 0, "MEAN_MOTION_DOT": -2.51e-06, "MEAN_MOTION_DDOT": 0}, "tle": {"line1": "1 41382U 16014A   25352.11298148 -.00000251  00000+0  00000+0 0  9998", "line2": "2 41382   0.0559 326.8482 0002313 310.1608 145.4298  1.00269947 35728"}}, "geometry": {"type": "Point", "coordinates": [-45.07766563942042, -0.0237411179456771]}}, {"type": "Feature", "properties": {"norad_id": 41589, "name": "EUTELSAT 117 WEST B", "group": "eutelsat", "lat": 0.014691493812366693, "lon": -96.86164775564207, "alt_km": 35784.732459644656, "timestamp": "2025-12-18T19:29:52.214458+00:00", "meta": {"OBJECT_NAME": "EUTELSAT 117 WEST B", "OBJECT_ID": "2016-038B", "EPOCH": "2025-12-17T21:19:49.567296", "MEAN_MOTION": 1.00271876, "ECCENTRICITY": 3.601e-05, "INCLINATION": 0.0113, "RA_OF_ASC_NODE": 157.4202, "ARG_OF_PERICENTER": 73.0441, "MEAN_ANOMALY": 59.2611, "EPHEMERIS_TYPE": 0, "CLASSIFICATION_TYPE": "U", "NORAD_CAT_ID": 41589, "ELEMENT_SET_NO": 999, "REV_AT_EPOCH": 3484, "BSTAR": 0, "MEAN_MOTION_DOT": 1.3e-07, "MEAN_MOTION_DDOT": 0}, "tle": {"line1": "1 41589U 16038B   25351.88876814  .00000013  00000+0  00000+0 0  9993", "line2": "2 41589   0.0113 157.4202 0000360  73.0441  59.2611  1.00271876 34848"}}, "geometry": {"type": "Point", "coordinates": [-96.86164775564207, 0.014691493812366693]}}]}